NORAD_CAT_ID,OBJECT_NAME,OBJECT_TYPE,EPOCH,MEAN_MOTION,ECCENTRICITY,INCLINATION,RA_OF_ASC_NODE,ARG_OF_PERICENTER,MEAN_ANOMALY,BSTAR,MEAN_MOTION_DOT,MEAN_MOTION_DDOT,TLE_LINE0,TLE_LINE1,TLE_LINE2,SEMIMAJOR_AXIS,PERIOD,APOGEE,PERIGEE,DECAYED
53404.0,STARLINK-4509,PAYLOAD,2024-02-03 04:15:57,15.08846989,0.0001344,53.2177,310.571,109.0928,251.021,5.6108e-05,6.05e-06,0.0,0 STARLINK-4509,1 53404U 22097S   24034.17774319  .00000605  00000-0  56108-4 0  9993,2 53404  53.2177 310.5710 0001344 109.0928 251.0210 15.08846989 83089,6917.859,95.437,540.654,538.794,0.0
53404.0,STARLINK-4509,PAYLOAD,2024-02-03 21:45:11,15.08840178,0.0001637,53.2178,307.2983,110.4482,249.6686,2.8716e-05,1.69e-06,0.0,0 STARLINK-4509,1 53404U 22097S   24034.90638782  .00000169  00000-0  28716-4 0  9996,2 53404  53.2178 307.2983 0001637 110.4482 249.6686 15.08840178 83197,6917.88,95.438,540.877,538.612,0.0
53404.0,STARLINK-4509,PAYLOAD,2024-02-04 04:06:44,15.08841194,0.0001589,53.2178,306.1093,104.6387,255.4781,2.9356e-05,1.79e-06,0.0,0 STARLINK-4509,1 53404U 22097S   24035.17134705  .00000179  00000-0  29356-4 0  9994,2 53404  53.2178 306.1093 0001589 104.6387 255.4781 15.08841194 82742,6917.877,95.437,540.841,538.642,0.0
53404.0,STARLINK-4509,PAYLOAD,2024-02-04 21:35:59,15.08838571,0.0001639,53.2179,302.8379,110.1342,249.9826,1.8728e-05,1e-07,0.0,0 STARLINK-4509,1 53404U 22097S   24035.89998890  .00000010  00000-0  18728-4 0  9991,2 53404  53.2179 302.8379 0001639 110.1342 249.9826 15.08838571 83342,6917.885,95.438,540.884,538.616,0.0
53404.0,STARLINK-4509,PAYLOAD,2024-02-05 10:19:03,15.08845661,0.0001381,53.2168,300.4604,98.6623,261.4526,5.3249e-05,5.6e-06,0.0,0 STARLINK-4509,1 53404U 22097S   24036.42990321  .00000560  00000-0  53249-4 0  9999,2 53404  53.2168 300.4604 0001381  98.6623 261.4526 15.08845661 82939,6917.863,95.437,540.683,538.773,0.0
53404.0,STARLINK-4509,PAYLOAD,2024-02-05 21:26:46,15.08838315,0.000153,53.2178,298.3884,114.8271,245.288,-3.1004e-05,-7.81e-06,0.0,0 STARLINK-4509,1 53404U 22097S   24036.89359301 -.00000781  00000-0 -31004-4 0  9999,2 53404  53.2178 298.3884 0001530 114.8271 245.2880 15.08838315 83494,6917.886,95.438,540.809,538.692,0.0
53404.0,STARLINK-4509,PAYLOAD,2024-02-06 03:48:18,15.08839118,0.0001556,53.218,297.1896,92.0455,268.0715,1.1875e-05,-9.9e-07,0.0,0 STARLINK-4509,1 53404U 22097S   24037.15855117 -.00000099  00000-0  11875-4 0  9990,2 53404  53.2180 297.1896 0001556  92.0455 268.0715 15.08839118 83049,6917.883,95.438,540.825,538.672,0.0
53404.0,STARLINK-4509,PAYLOAD,2024-02-06 22:52:56,15.08843679,0.0001546,53.2169,293.6203,107.9405,252.1756,3.5182e-05,2.72e-06,0.0,0 STARLINK-4509,1 53404U 22097S   24037.95342892  .00000272  00000-0  35182-4 0  9998,2 53404  53.2169 293.6203 0001546 107.9405 252.1756 15.08843679 83652,6917.869,95.437,540.804,538.665,0.0
53404.0,STARLINK-4509,PAYLOAD,2024-02-07 02:03:41,15.08851275,0.0001287,53.2163,293.0299,100.4975,259.6163,0.00011729,1.58e-05,0.0,0 STARLINK-4509,1 53404U 22097S   24038.08590195  .00001580  00000-0  11729-3 0  9997,2 53404  53.2163 293.0299 0001287 100.4975 259.6163 15.08851275 83180,6917.846,95.437,540.601,538.821,0.0
53404.0,STARLINK-4509,PAYLOAD,2024-02-07 10:00:39,15.08833746,0.0001688,53.2185,291.5458,85.0313,275.0872,-1.3214e-05,-4.98e-06,0.0,0 STARLINK-4509,1 53404U 22097S   24038.41711846 -.00000498  00000-0 -13214-4 0  9993,2 53404  53.2185 291.5458 0001688  85.0313 275.0872 15.08833746 83231,6917.9,95.438,540.932,538.597,0.0
53404.0,STARLINK-4509,PAYLOAD,2024-02-07 22:43:44,15.08826569,0.0001352,53.2179,289.1616,82.8123,277.3023,1.1887e-05,-9.9e-07,0.0,0 STARLINK-4509,1 53404U 22097S   24038.94704454 -.00000099  00000-0  11887-4 0  9998,2 53404  53.2179 289.1616 0001352  82.8123 277.3023 15.08826569 83806,6917.921,95.438,540.722,538.851,0.0
53404.0,STARLINK-4509,PAYLOAD,2024-02-08 09:51:25,15.08839399,0.0001732,53.2164,287.0838,128.2314,231.8834,7.1831e-05,8.55e-06,0.0,0 STARLINK-4509,1 53404U 22097S   24039.41071446  .00000855  00000-0  71831-4 0  9993,2 53404  53.2164 287.0838 0001732 128.2314 231.8834 15.08839399 83385,6917.882,95.438,540.945,538.549,0.0
53404.0,STARLINK-4509,PAYLOAD,2024-02-08 22:34:30,15.08849169,0.0001518,53.2159,284.706,81.5154,278.601,5.3505e-05,5.64e-06,0.0,0 STARLINK-4509,1 53404U 22097S   24039.94063253  .00000564  00000-0  53505-4 0  9993,2 53404  53.2159 284.7060 0001518  81.5154 278.6010 15.08849169 83959,6917.852,95.437,540.767,538.667,0.0
53404.0,STARLINK-4509,PAYLOAD,2024-02-09 01:45:16,15.08854819,0.000149,53.2163,284.1078,91.1086,269.0076,8.7542e-05,1.106e-05,0.0,0 STARLINK-4509,1 53404U 22097S   24040.07310659  .00001106  00000-0  87542-4 0  9995,2 53404  53.2163 284.1078 0001490  91.1086 269.0076 15.08854819 83489,6917.835,95.437,540.731,538.669,0.0
53404.0,STARLINK-4509,PAYLOAD,2024-02-09 19:14:31,15.08838669,0.0001755,53.2159,280.835,111.5718,248.5461,0.00014619,2.039e-05,0.0,0 STARLINK-4509,1 53404U 22097S   24040.80175483  .00002039  00000-0  14619-3 0  9990,2 53404  53.2159 280.8350 0001755 111.5718 248.5461 15.08838669 83590,6917.884,95.438,540.964,538.535,0.0
53404.0,STARLINK-4509,PAYLOAD,2024-02-10 01:36:04,15.08845921,0.0001403,53.2167,279.6473,89.2745,270.8408,0.00013437,1.852e-05,0.0,0 STARLINK-4509,1 53404U 22097S   24041.06671326  .00001852  00000-0  13437-3 0  9995,2 53404  53.2167 279.6473 0001403  89.2745 270.8408 15.08845921 84120,6917.862,95.437,540.698,538.757,0.0
53404.0,STARLINK-4509,PAYLOAD,2024-02-10 20:40:42,15.0884068,0.0001328,53.216,276.0768,101.2987,258.8155,4.3275e-05,4.01e-06,0.0,0 STARLINK-4509,1 53404U 22097S   24041.86159883  .00000401  00000-0  43275-4 0  9995,2 53404  53.2160 276.0768 0001328 101.2987 258.8155 15.08840680 83750,6917.878,95.438,540.662,538.825,0.0
53404.0,STARLINK-4509,PAYLOAD,2024-02-11 01:26:51,15.08847784,0.0001524,53.216,275.1838,123.4996,236.6142,-1.5352e-05,-5.32e-06,0.0,0 STARLINK-4509,1 53404U 22097S   24042.06031423 -.00000532  00000-0 -15352-4 0  9999,2 53404  53.2160 275.1838 0001524 123.4996 236.6142 15.08847784 84272,6917.857,95.437,540.776,538.667,0.0
53404.0,STARLINK-4509,PAYLOAD,2024-02-11 22:06:51,15.08849021,0.0001421,53.2163,271.3175,112.9382,247.176,0.00011252,1.504e-05,0.0,0 STARLINK-4509,1 53404U 22097S   24042.92143049  .00001504  00000-0  11252-3 0  9994,2 53404  53.2163 271.3175 0001421 112.9382 247.1760 15.08849021 84409,6917.853,95.437,540.701,538.735,0.0
53404.0,STARLINK-4509,PAYLOAD,2024-02-12 20:22:16,15.08838821,0.0001452,53.2156,267.155,100.4232,259.6924,5.7019e-05,6.2e-06,0.0,0 STARLINK-4509,1 53404U 22097S   24043.84879915  .00000620  00000-0  57019-4 0  9994,2 53404  53.2156 267.1550 0001452 100.4232 259.6924 15.08838821 84058,6917.884,95.438,540.753,538.745,0.0
53404.0,STARLINK-4509,PAYLOAD,2024-02-13 07:29:58,15.0883554,0.000141,53.2157,265.0734,94.1698,265.9455,1.4164e-05,-6.3e-07,0.0,0 STARLINK-4509,1 53404U 22097S   24044.31248174 -.00000063  00000-0  14164-4 0  9990,2 53404  53.2157 265.0734 0001410  94.1698 265.9455 15.08835540 84615,6917.894,95.438,540.734,538.784,0.0
53404.0,STARLINK-4509,PAYLOAD,2024-02-13 21:48:26,15.08844268,0.0001644,53.2156,262.3971,94.1642,265.9538,2.0134e-05,3.2e-07,0.0,0 STARLINK-4509,1 53404U 22097S   24044.90863879  .00000032  00000-0  20134-4 0  9999,2 53404  53.2156 262.3971 0001644  94.1642 265.9538 15.08844268 84704,6917.867,95.437,540.87,538.595,0.0
53404.0,STARLINK-4509,PAYLOAD,2024-02-13 23:23:49,15.08846289,0.0001647,53.2158,262.0992,92.5413,267.5767,2.3493e-05,8.6e-07,0.0,0 STARLINK-4509,1 53404U 22097S   24044.97487771  .00000086  00000-0  23493-4 0  9999,2 53404  53.2158 262.0992 0001647  92.5413 267.5767 15.08846289 84221,6917.861,95.437,540.866,538.587,0.0
53404.0,STARLINK-4509,PAYLOAD,2024-02-14 13:42:18,15.08837753,0.0001591,53.2154,259.4279,84.5783,275.5391,0.00011226,1.499e-05,0.0,0 STARLINK-4509,1 53404U 22097S   24045.57104338  .00001499  00000-0  11226-3 0  9990,2 53404  53.2154 259.4279 0001591  84.5783 275.5391 15.08837753 84806,6917.887,95.438,540.853,538.652,0.0
53404.0,STARLINK-4509,PAYLOAD,2024-02-14 21:39:14,15.08834636,0.0001528,53.2162,257.9406,87.6593,272.4574,8.6222e-05,1.084e-05,0.0,0 STARLINK-4509,1 53404U 22097S   24045.90224811  .00001084  00000-0  86222-4 0  9995,2 53404  53.2162 257.9406 0001528  87.6593 272.4574 15.08834636 84854,6917.897,95.438,540.819,538.705,0.0
53404.0,STARLINK-4509,PAYLOAD,2024-02-15 13:33:05,15.08844297,0.000175,53.2161,254.9669,86.2466,273.8726,-2.9433e-07,-2.93e-06,0.0,0 STARLINK-4509,1 53404U 22097S   24046.56464611 -.00000293  00000-0 -29433-6 0  9998,2 53404  53.2161 254.9669 0001750  86.2466 273.8726 15.08844297 84951,6917.867,95.437,540.943,538.522,0.0
53404.0,STARLINK-4509,PAYLOAD,2024-02-15 19:54:37,15.08841806,0.0001393,53.2152,253.7776,83.2419,276.8731,2.7744e-05,1.54e-06,0.0,0 STARLINK-4509,1 53404U 22097S   24046.82960626  .00000154  00000-0  27744-4 0  9999,2 53404  53.2152 253.7776 0001393  83.2419 276.8731 15.08841806 84508,6917.875,95.437,540.704,538.776,0.0
53404.0,STARLINK-4509,PAYLOAD,2024-02-15 21:30:01,15.0884233,0.0001418,53.2154,253.4803,82.9781,277.1373,3.0025e-05,1.9e-06,0.0,0 STARLINK-4509,1 53404U 22097S   24046.89584564  .00000190  00000-0  30025-4 0  9995,2 53404  53.2154 253.4803 0001418  82.9781 277.1373 15.08842330 85009,6917.873,95.437,540.719,538.757,0.0
53404.0,STARLINK-4509,PAYLOAD,2024-02-16 13:23:52,15.08839978,0.0001385,53.2154,250.5059,83.8232,276.2918,0.00010781,1.428e-05,0.0,0 STARLINK-4509,1 53404U 22097S   24047.55824389  .00001428  00000-0  10781-3 0  9992,2 53404  53.2154 250.5059 0001385  83.8232 276.2918 15.08839978 85104,6917.88,95.438,540.704,538.787,0.0
53404.0,STARLINK-4509,PAYLOAD,2024-02-16 19:45:24,15.08842554,0.0001374,53.2153,249.3158,85.2178,274.8971,9.9614e-05,1.298e-05,0.0,0 STARLINK-4509,1 53404U 22097S   24047.82320262  .00001298  00000-0  99614-4 0  9991,2 53404  53.2153 249.3158 0001374  85.2178 274.8971 15.08842554 85143,6917.873,95.437,540.688,538.787,0.0
